{
 "generated_at": "2026-06-25T08:23:36Z",
 "sources": [
  {
   "name": "CelesTrak",
   "url": "https://celestrak.org/NORAD/elements/",
   "license": "frei verfügbar; Attribution. Ursprünglich USSPACECOM/Space-Track."
  },
  {
   "name": "GCAT (J. McDowell, planet4589.org)",
   "url": "https://planet4589.org/space/gcat/",
   "license": "CC-BY 4.0"
  }
 ],
 "satellites": [
  {
   "norad": 43013,
   "name": "NOAA 20 (JPSS-1)",
   "intl": "2017-073A",
   "group": "weather",
   "gcat": {
    "class": "C",
    "category": "MET",
    "owner": "GSFC/NOAA",
    "state": "US"
   },
   "omm": {
    "OBJECT_NAME": "NOAA 20 (JPSS-1)",
    "OBJECT_ID": "2017-073A",
    "EPOCH": "2026-06-24T04:34:57.392256",
    "MEAN_MOTION": 14.19512876,
    "ECCENTRICITY": 0.00005063,
    "INCLINATION": 98.7772,
    "RA_OF_ASC_NODE": 114.5913,
    "ARG_OF_PERICENTER": 130.2018,
    "MEAN_ANOMALY": 229.9202,
    "EPHEMERIS_TYPE": 0,
    "CLASSIFICATION_TYPE": "U",
    "NORAD_CAT_ID": 43013,
    "ELEMENT_SET_NO": 999,
    "REV_AT_EPOCH": 44546,
    "BSTAR": 0.000031656711,
    "MEAN_MOTION_DOT": 2.3e-7,
    "MEAN_MOTION_DDOT": 0
   }
  },
  {
   "norad": 54234,
   "name": "NOAA 21 (JPSS-2)",
   "intl": "2022-150A",
   "group": "weather",
   "gcat": {
    "class": "C",
    "category": "MET",
    "owner": "GSFC/NOAA",
    "state": "US"
   },
   "omm": {
    "OBJECT_NAME": "NOAA 21 (JPSS-2)",
    "OBJECT_ID": "2022-150A",
    "EPOCH": "2026-06-24T05:21:58.029984",
    "MEAN_MOTION": 14.19566515,
    "ECCENTRICITY": 0.00020075,
    "INCLINATION": 98.706,
    "RA_OF_ASC_NODE": 113.8947,
    "ARG_OF_PERICENTER": 139.2826,
    "MEAN_ANOMALY": 220.8501,
    "EPHEMERIS_TYPE": 0,
    "CLASSIFICATION_TYPE": "U",
    "NORAD_CAT_ID": 54234,
    "ELEMENT_SET_NO": 999,
    "REV_AT_EPOCH": 18754,
    "BSTAR": 0.000036182546,
    "MEAN_MOTION_DOT": 3.3e-7,
    "MEAN_MOTION_DDOT": 0
   }
  },
  {
   "norad": 43619,
   "name": "NOVASAR 1",
   "intl": "2018-071B",
   "group": "sar",
   "gcat": {
    "class": "B",
    "category": "IMG",
    "owner": "SSTLA",
    "state": "UK"
   },
   "omm": {
    "OBJECT_NAME": "NOVASAR 1",
    "OBJECT_ID": "2018-071B",
    "EPOCH": "2026-06-24T06:38:42.249696",
    "MEAN_MOTION": 14.96254996,
    "ECCENTRICITY": 0.00023216,
    "INCLINATION": 97.5071,
    "RA_OF_ASC_NODE": 47.3064,
    "ARG_OF_PERICENTER": 75.4151,
    "MEAN_ANOMALY": 284.7328,
    "EPHEMERIS_TYPE": 0,
    "CLASSIFICATION_TYPE": "U",
    "NORAD_CAT_ID": 43619,
    "ELEMENT_SET_NO": 999,
    "REV_AT_EPOCH": 42399,
    "BSTAR": 0.000047583668,
    "MEAN_MOTION_DOT": 0.00000483,
    "MEAN_MOTION_DDOT": 0
   }
  },
  {
   "norad": 35931,
   "name": "OCEANSAT-2",
   "intl": "2009-051A",
   "group": "resource",
   "gcat": {
    "class": null,
    "category": null,
    "owner": null,
    "state": null
   },
   "omm": {
    "OBJECT_NAME": "OCEANSAT-2",
    "OBJECT_ID": "2009-051A",
    "EPOCH": "2026-06-24T06:38:22.367328",
    "MEAN_MOTION": 13.99662291,
    "ECCENTRICITY": 0.00157821,
    "INCLINATION": 98.2321,
    "RA_OF_ASC_NODE": 161.4208,
    "ARG_OF_PERICENTER": 214.7601,
    "MEAN_ANOMALY": 145.2535,
    "EPHEMERIS_TYPE": 0,
    "CLASSIFICATION_TYPE": "U",
    "NORAD_CAT_ID": 35931,
    "ELEMENT_SET_NO": 999,
    "REV_AT_EPOCH": 88032,
    "BSTAR": -0.00012532584,
    "MEAN_MOTION_DOT": -0.00000221,
    "MEAN_MOTION_DDOT": 0
   }
  },
  {
   "norad": 59065,
   "name": "PARS 1",
   "intl": "2024-039Q",
   "group": "resource",
   "gcat": {
    "class": "C",
    "category": "IMG",
    "owner": "IRSA",
    "state": "IR"
   },
   "omm": {
    "OBJECT_NAME": "PARS 1",
    "OBJECT_ID": "2024-039Q",
    "EPOCH": "2026-06-24T07:20:21.540768",
    "MEAN_MOTION": 15.45854898,
    "ECCENTRICITY": 0.00115423,
    "INCLINATION": 97.4824,
    "RA_OF_ASC_NODE": 156.4499,
    "ARG_OF_PERICENTER": 90.718,
    "MEAN_ANOMALY": 269.5392,
    "EPHEMERIS_TYPE": 0,
    "CLASSIFICATION_TYPE": "U",
    "NORAD_CAT_ID": 59065,
    "ELEMENT_SET_NO": 999,
    "REV_AT_EPOCH": 12974,
    "BSTAR": 0.00020060962,
    "MEAN_MOTION_DOT": 0.00009668,
    "MEAN_MOTION_DDOT": 0
   }
  },
  {
   "norad": 41787,
   "name": "PATHFINDER 1",
   "intl": "2016-059E",
   "group": "resource",
   "gcat": {
    "class": null,
    "category": null,
    "owner": null,
    "state": null
   },
   "omm": {
    "OBJECT_NAME": "PATHFINDER 1",
    "OBJECT_ID": "2016-059E",
    "EPOCH": "2026-06-24T05:26:45.252096",
    "MEAN_MOTION": 14.67669669,
    "ECCENTRICITY": 0.00283759,
    "INCLINATION": 97.8167,
    "RA_OF_ASC_NODE": 174.1855,
    "ARG_OF_PERICENTER": 180.8535,
    "MEAN_ANOMALY": 179.2627,
    "EPHEMERIS_TYPE": 0,
    "CLASSIFICATION_TYPE": "U",
    "NORAD_CAT_ID": 41787,
    "ELEMENT_SET_NO": 999,
    "REV_AT_EPOCH": 52074,
    "BSTAR": 0.000089286709,
    "MEAN_MOTION_DOT": 0.00000464,
    "MEAN_MOTION_DDOT": 0
   }
  },
  {
   "norad": 43215,
   "name": "PAZ",
   "intl": "2018-020A",
   "group": "sar",
   "gcat": {
    "class": "D",
    "category": "IMG-R",
    "owner": "HISD",
    "state": "E"
   },
   "omm": {
    "OBJECT_NAME": "PAZ",
    "OBJECT_ID": "2018-020A",
    "EPOCH": "2026-06-24T19:31:34.510368",
    "MEAN_MOTION": 15.19144604,
    "ECCENTRICITY": 0.0001749,
    "INCLINATION": 97.4451,
    "RA_OF_ASC_NODE": 183.0907,
    "ARG_OF_PERICENTER": 87.52,
    "MEAN_ANOMALY": 272.6235,
    "EPHEMERIS_TYPE": 0,
    "CLASSIFICATION_TYPE": "U",
    "NORAD_CAT_ID": 43215,
    "ELEMENT_SET_NO": 999,
    "REV_AT_EPOCH": 46216,
    "BSTAR": 0.00013981,
    "MEAN_MOTION_DOT": 0.0000287,
    "MEAN_MOTION_DDOT": 0
   }
  },
  {
   "norad": 38012,
   "name": "PLEIADES 1A",
   "intl": "2011-076F",
   "group": "resource",
   "gcat": {
    "class": null,
    "category": "IMG",
    "owner": "CNES/DGA",
    "state": "F"
   },
   "omm": {
    "OBJECT_NAME": "PLEIADES 1A",
    "OBJECT_ID": "2011-076F",
    "EPOCH": "2026-06-24T07:57:37.259136",
    "MEAN_MOTION": 14.58534686,
    "ECCENTRICITY": 0.00017506,
    "INCLINATION": 98.1972,
    "RA_OF_ASC_NODE": 250.3389,
    "ARG_OF_PERICENTER": 92.3806,
    "MEAN_ANOMALY": 344.267,
    "EPHEMERIS_TYPE": 0,
    "CLASSIFICATION_TYPE": "U",
    "NORAD_CAT_ID": 38012,
    "ELEMENT_SET_NO": 999,
    "REV_AT_EPOCH": 77303,
    "BSTAR": 0.000051060469,
    "MEAN_MOTION_DOT": 0.00000192,
    "MEAN_MOTION_DDOT": 0
   }
  },
  {
   "norad": 39019,
   "name": "PLEIADES 1B",
   "intl": "2012-068A",
   "group": "resource",
   "gcat": {
    "class": null,
    "category": "IMG",
    "owner": "CNES",
    "state": "F"
   },
   "omm": {
    "OBJECT_NAME": "PLEIADES 1B",
    "OBJECT_ID": "2012-068A",
    "EPOCH": "2026-06-24T06:47:03.654816",
    "MEAN_MOTION": 14.5856405,
    "ECCENTRICITY": 0.00016791,
    "INCLINATION": 98.1942,
    "RA_OF_ASC_NODE": 250.2368,
    "ARG_OF_PERICENTER": 89.2865,
    "MEAN_ANOMALY": 270.8526,
    "EPHEMERIS_TYPE": 0,
    "CLASSIFICATION_TYPE": "U",
    "NORAD_CAT_ID": 39019,
    "ELEMENT_SET_NO": 999,
    "REV_AT_EPOCH": 72188,
    "BSTAR": 0.000047813332,
    "MEAN_MOTION_DOT": 0.00000177,
    "MEAN_MOTION_DDOT": 0
   }
  },
  {
   "norad": 48268,
   "name": "PLEIADES NEO 3",
   "intl": "2021-034A",
   "group": "resource",
   "gcat": {
    "class": null,
    "category": "IMG",
    "owner": "ADSTI",
    "state": "F"
   },
   "omm": {
    "OBJECT_NAME": "PLEIADES NEO 3",
    "OBJECT_ID": "2021-034A",
    "EPOCH": "2026-06-24T14:44:25.583136",
    "MEAN_MOTION": 14.81673112,
    "ECCENTRICITY": 0.0001333,
    "INCLINATION": 97.8935,
    "RA_OF_ASC_NODE": 250.2743,
    "ARG_OF_PERICENTER": 98.3393,
    "MEAN_ANOMALY": 261.7971,
    "EPHEMERIS_TYPE": 0,
    "CLASSIFICATION_TYPE": "U",
    "NORAD_CAT_ID": 48268,
    "ELEMENT_SET_NO": 999,
    "REV_AT_EPOCH": 27875,
    "BSTAR": 0.00011325,
    "MEAN_MOTION_DOT": 0.00000839,
    "MEAN_MOTION_DDOT": 0
   }
  }
 ]
}
